NORAD_CAT_ID,OBJECT_NAME,OBJECT_TYPE,EPOCH,MEAN_MOTION,ECCENTRICITY,INCLINATION,RA_OF_ASC_NODE,ARG_OF_PERICENTER,MEAN_ANOMALY,BSTAR,MEAN_MOTION_DOT,MEAN_MOTION_DDOT,TLE_LINE0,TLE_LINE1,TLE_LINE2,SEMIMAJOR_AXIS,PERIOD,APOGEE,PERIGEE,DECAYED
53718.0,STARLINK-4695,PAYLOAD,2023-08-28 06:37:28,15.08835484,0.0001449,53.2185,83.6106,86.9157,273.2001,5.7969e-05,6.35e-06,0.0,0 STARLINK-4695,1 53718U 22107U   23240.27602694  .00000635  00000-0  57969-4 0  9997,2 53718  53.2185  83.6106 0001449  86.9157 273.2001 15.08835484 54402,6917.894,95.438,540.762,538.757,0.0
53718.0,STARLINK-4695,PAYLOAD,2023-08-28 20:55:56,15.08840278,0.0001342,53.2184,80.9335,94.3517,265.7628,6.4621e-05,7.41e-06,0.0,0 STARLINK-4695,1 53718U 22107U   23240.87218430  .00000741  00000-0  64621-4 0  9995,2 53718  53.2184  80.9335 0001342  94.3517 265.7628 15.08840278 54947,6917.88,95.438,540.673,538.816,0.0
53718.0,STARLINK-4695,PAYLOAD,2023-08-29 17:35:57,15.08838221,9.36e-05,53.2183,77.0688,87.7903,272.3196,-3.8896e-05,-9.07e-06,0.0,0 STARLINK-4695,1 53718U 22107U   23241.73330933 -.00000907  00000-0 -38896-4 0  9995,2 53718  53.2183  77.0688 0000936  87.7903 272.3196 15.08838221 54621,6917.886,95.438,540.398,539.103,0.0
53718.0,STARLINK-4695,PAYLOAD,2023-08-29 19:11:20,15.08840864,0.0001413,53.2188,76.7699,85.3631,274.7522,-1.5338e-05,-5.32e-06,0.0,0 STARLINK-4695,1 53718U 22107U   23241.79954802 -.00000532  00000-0 -15338-4 0  9998,2 53718  53.2188  76.7699 0001413  85.3631 274.7522 15.08840864 55083,6917.878,95.438,540.72,538.765,0.0
53718.0,STARLINK-4695,PAYLOAD,2023-08-29 22:22:06,15.08849872,0.0001338,53.2185,76.1766,90.0993,270.0153,6.1774e-05,6.96e-06,0.0,0 STARLINK-4695,1 53718U 22107U   23241.93201991  .00000696  00000-0  61774-4 0  9992,2 53718  53.2185  76.1766 0001338  90.0993 270.0153 15.08849872 54658,6917.85,95.437,540.641,538.79,0.0
53718.0,STARLINK-4695,PAYLOAD,2023-08-30 06:19:05,15.0879717,7.32e-05,53.2184,74.6926,221.0572,139.0365,-0.00057351,-9.392e-05,0.0,0 STARLINK-4695,1 53718U 22107U   23242.26325829 -.00009392  00000-0 -57351-3 0  9995,2 53718  53.2184  74.6926 0000732 221.0572 139.0365 15.08797170 54702,6918.011,95.44,540.383,539.37,0.0
53718.0,STARLINK-4695,PAYLOAD,2023-08-30 19:01:49,15.0909219,0.0003978,53.2177,72.3141,103.5118,256.6318,0.0021812,0.00034843,0.0,0 STARLINK-4695,1 53718U 22107U   23242.79293801  .00034843  00000-0  21812-2 0  9996,2 53718  53.2177  72.3141 0003978 103.5118 256.6318 15.09092190 55237,6917.11,95.422,541.726,536.223,0.0
53718.0,STARLINK-4695,PAYLOAD,2023-08-31 12:31:22,15.08836536,0.0001287,53.2172,69.0406,87.4466,272.6673,7.1201e-05,8.45e-06,0.0,0 STARLINK-4695,1 53718U 22107U   23243.52178651  .00000845  00000-0  71201-4 0  9997,2 53718  53.2172  69.0406 0001287  87.4466 272.6673 15.08836536 54898,6917.891,95.438,540.646,538.866,0.0
53718.0,STARLINK-4695,PAYLOAD,2023-08-31 15:42:08,15.08838798,0.0001324,53.2174,68.4464,85.175,274.9394,9.039e-05,1.151e-05,0.0,0 STARLINK-4695,1 53718U 22107U   23243.65426540  .00001151  00000-0  90390-4 0  9995,2 53718  53.2174  68.4464 0001324  85.1750 274.9394 15.08838798 55360,6917.884,95.438,540.665,538.833,0.0
53718.0,STARLINK-4695,PAYLOAD,2023-08-31 22:03:40,15.08844728,0.0001299,53.2173,67.2572,83.8038,276.3102,8.6135e-05,1.083e-05,0.0,0 STARLINK-4695,1 53718U 22107U   23243.91922182  .00001083  00000-0  86135-4 0  9993,2 53718  53.2173  67.2572 0001299  83.8038 276.3102 15.08844728 54958,6917.866,95.437,540.63,538.832,0.0
53718.0,STARLINK-4695,PAYLOAD,2023-09-01 12:22:09,15.0884113,0.0001668,53.2172,64.581,83.4376,276.6806,-4.3726e-05,-9.84e-06,0.0,0 STARLINK-4695,1 53718U 22107U   23244.51538895 -.00000984  00000-0 -43726-4 0  9994,2 53718  53.2172  64.5810 0001668  83.4376 276.6806 15.08841130 55042,6917.877,95.437,540.896,538.588,0.0
53718.0,STARLINK-4695,PAYLOAD,2023-09-01 18:43:42,15.08819158,8.71e-05,53.2175,63.3911,95.4911,264.6181,0.00033818,5.095e-05,0.0,0 STARLINK-4695,1 53718U 22107U   23244.78035571  .00005095  00000-0  33818-3 0  9992,2 53718  53.2175  63.3911 0000871  95.4911 264.6181 15.08819158 55089,6917.944,95.439,540.412,539.207,0.0
53718.0,STARLINK-4695,PAYLOAD,2023-09-02 07:26:47,15.08833525,0.0001337,53.2175,61.0122,88.8708,271.2437,0.00010701,1.415e-05,0.0,0 STARLINK-4695,1 53718U 22107U   23245.31026949  .00001415  00000-0  10701-3 0  9999,2 53718  53.2175  61.0122 0001337  88.8708 271.2437 15.08833525 55167,6917.9,95.438,540.69,538.84,0.0
53718.0,STARLINK-4695,PAYLOAD,2023-09-02 12:12:56,15.08832443,0.0001345,53.2174,60.12,88.6836,271.4311,8.9964e-05,1.144e-05,0.0,0 STARLINK-4695,1 53718U 22107U   23245.50899140  .00001144  00000-0  89964-4 0  9998,2 53718  53.2174  60.1200 0001345  88.6836 271.4311 15.08832443 55646,6917.903,95.438,540.699,538.838,0.0
53718.0,STARLINK-4695,PAYLOAD,2023-09-02 18:34:29,15.08838295,0.0001304,53.2175,58.9309,88.3878,271.7263,0.00010207,1.337e-05,0.0,0 STARLINK-4695,1 53718U 22107U   23245.77394857  .00001337  00000-0  10207-3 0  9999,2 53718  53.2175  58.9309 0001304  88.3878 271.7263 15.08838295 55684,6917.886,95.438,540.653,538.849,0.0
53718.0,STARLINK-4695,PAYLOAD,2023-09-03 12:03:43,15.0884128,0.0001226,53.2177,55.6601,88.5515,271.5618,9.1076e-05,1.162e-05,0.0,0 STARLINK-4695,1 53718U 22107U   23246.50258881  .00001162  00000-0  91076-4 0  9997,2 53718  53.2177  55.6601 0001226  88.5515 271.5618 15.08841280 55790,6917.876,95.437,540.59,538.893,0.0
53718.0,STARLINK-4695,PAYLOAD,2023-09-03 18:25:15,15.08845869,0.0001221,53.2178,54.4707,88.1732,271.94,0.0001253,1.707e-05,0.0,0 STARLINK-4695,1 53718U 22107U   23246.76754498  .00001707  00000-0  12530-3 0  9992,2 53718  53.2178  54.4707 0001221  88.1732 271.9400 15.08845869 55382,6917.862,95.437,540.572,538.883,0.0
53718.0,STARLINK-4695,PAYLOAD,2023-09-04 10:19:05,15.08926063,6.53e-05,53.2177,51.4972,77.0322,283.0743,-0.0012925,-0.00020847,0.0,0 STARLINK-4695,1 53718U 22107U   23247.42992856 -.00020847  00000-0 -12925-2 0  9993,2 53718  53.2177  51.4972 0000653  77.0322 283.0743 15.08926063 55483,6917.617,95.432,539.934,539.031,0.0
53718.0,STARLINK-4695,PAYLOAD,2023-09-04 11:54:31,15.08828754,0.0001243,53.2179,51.1997,86.552,273.5614,4.8474e-05,4.83e-06,0.0,0 STARLINK-4695,1 53718U 22107U   23247.49619935  .00000483  00000-0  48474-4 0  9996,2 53718  53.2179  51.1997 0001243  86.5520 273.5614 15.08828754 55940,6917.915,95.438,540.64,538.92,0.0
53718.0,STARLINK-4695,PAYLOAD,2023-09-04 18:16:03,15.08833733,0.0001228,53.218,50.0104,87.074,273.0393,8.3389e-05,1.039e-05,0.0,0 STARLINK-4695,1 53718U 22107U   23247.76115671  .00001039  00000-0  83389-4 0  9996,2 53718  53.2180  50.0104 0001228  87.0740 273.0393 15.08833733 55530,6917.9,95.438,540.614,538.915,0.0
53718.0,STARLINK-4695,PAYLOAD,2023-09-05 03:48:22,15.08840446,0.0001243,53.218,48.2264,87.8474,272.2661,5.8571e-05,6.44e-06,0.0,0 STARLINK-4695,1 53718U 22107U   23248.15859351  .00000644  00000-0  58571-4 0  9996,2 53718  53.2180  48.2264 0001243  87.8474 272.2661 15.08840446 56040,6917.879,95.438,540.604,538.884,0.0
53718.0,STARLINK-4695,PAYLOAD,2023-09-05 13:20:41,15.08838216,0.0001224,53.2182,46.4417,90.5499,269.5634,4.1834e-05,3.78e-06,0.0,0 STARLINK-4695,1 53718U 22107U   23248.55603572  .00000378  00000-0  41834-4 0  9990,2 53718  53.2182  46.4417 0001224  90.5499 269.5634 15.08838216 56107,6917.886,95.438,540.598,538.904,0.0
53718.0,STARLINK-4695,PAYLOAD,2023-09-06 16:22:14,15.08839739,0.0001202,53.2186,41.3857,91.8831,268.2299,0.00016448,2.331e-05,0.0,0 STARLINK-4695,1 53718U 22107U   23249.68211395  .00002331  00000-0  16448-3 0  9996,2 53718  53.2186  41.3857 0001202  91.8831 268.2299 15.08839739 55825,6917.881,95.438,540.578,538.915,0.0
53718.0,STARLINK-4695,PAYLOAD,2023-09-07 11:26:52,15.08839211,0.0001172,53.2187,37.8176,88.862,271.2507,7.7862e-05,9.52e-06,0.0,0 STARLINK-4695,1 53718U 22107U   23250.47699614  .00000952  00000-0  77862-4 0  9994,2 53718  53.2187  37.8176 0001172  88.8620 271.2507 15.08839211 56392,6917.883,95.438,540.559,538.937,0.0
53718.0,STARLINK-4695,PAYLOAD,2023-09-08 12:53:02,15.08840824,0.0001208,53.2188,33.0591,96.0015,264.1114,5.6068e-05,6.05e-06,0.0,0 STARLINK-4695,1 53718U 22107U   23251.53683483  .00000605  00000-0  56068-4 0  9999,2 53718  53.2188  33.0591 0001208  96.0015 264.1114 15.08840824 56556,6917.878,95.438,540.579,538.907,0.0
53718.0,STARLINK-4695,PAYLOAD,2023-09-08 16:03:48,15.08844631,0.0001251,53.2187,32.4653,88.1119,272.0016,6.9278e-05,8.15e-06,0.0,0 STARLINK-4695,1 53718U 22107U   23251.66931223  .00000815  00000-0  69278-4 0  9991,2 53718  53.2187  32.4653 0001251  88.1119 272.0016 15.08844631 56124,6917.866,95.437,540.597,538.866,0.0
53718.0,STARLINK-4695,PAYLOAD,2023-09-08 19:14:34,15.08847165,0.0001261,53.2188,31.8701,90.494,269.6196,0.00010594,1.399e-05,0.0,0 STARLINK-4695,1 53718U 22107U   23251.80178947  .00001399  00000-0  10594-3 0  9997,2 53718  53.2188  31.8701 0001261  90.4940 269.6196 15.08847165 56598,6917.858,95.437,540.596,538.851,0.0
53718.0,STARLINK-4695,PAYLOAD,2023-09-09 04:46:54,15.08835695,0.0001144,53.219,30.0854,98.7842,261.3279,4.4887e-05,4.27e-06,0.0,0 STARLINK-4695,1 53718U 22107U   23252.19923721  .00000427  00000-0  44887-4 0  9992,2 53718  53.2190  30.0854 0001144  98.7842 261.3279 15.08835695 56207,6917.894,95.438,540.55,538.967,0.0
53718.0,STARLINK-4695,PAYLOAD,2023-09-09 12:43:49,15.08836166,0.0001224,53.2189,28.5997,90.4703,269.6429,5.3254e-05,5.6e-06,0.0,0 STARLINK-4695,1 53718U 22107U   23252.53043860  .00000560  00000-0  53254-4 0  9993,2 53718  53.2189  28.5997 0001224  90.4703 269.6429 15.08836166 56706,6917.892,95.438,540.604,538.91,0.0
53718.0,STARLINK-4695,PAYLOAD,2023-09-10 09:23:50,15.0883857,0.0001226,53.2189,24.7339,88.6658,271.4474,8.2116e-05,1.019e-05,0.0,0 STARLINK-4695,1 53718U 22107U   23253.39155774  .00001019  00000-0  82116-4 0  9995,2 53718  53.2189  24.7339 0001226  88.6658 271.4474 15.08838570 56380,6917.885,95.438,540.598,538.902,0.0
